{
  "type": "FeatureCollection",
  "features": [
    {
      "type": "Feature",
      "properties": {
        "norad_id": 43359,
        "name": "FENGYUN 1C DEB",
        "group": "fengyun-1c-debris",
        "lat": -38.25261173122802,
        "lon": -131.15231339214276,
        "alt_km": 874.5674499652287,
        "timestamp": "2025-12-02T08:59:33.004771+00:00",
        "meta_object_name": "FENGYUN 1C DEB",
        "meta_object_id": "1999-025EYQ",
        "meta_epoch": "2025-12-02T04:35:45.862656",
        "meta_mean_motion": 14.23010265,
        "meta_eccentricity": 0.0074216,
        "meta_inclination": 99.054,
        "meta_ra_of_asc_node": 55.8814,
        "meta_arg_of_pericenter": 46.0564,
        "meta_mean_anomaly": 314.6705,
        "meta_ephemeris_type": 0,
        "meta_classification_type": "U",
        "meta_norad_cat_id": 43359,
        "meta_element_set_no": 999,
        "meta_rev_at_epoch": 47599,
        "meta_bstar": 0.0022007,
        "meta_mean_motion_dot": 5.056e-05,
        "meta_mean_motion_ddot": 0,
        "tle_line1": "1 43359U 99025EYQ 25336.19150304  .00005056  00000+0  22007-2 0  9999",
        "tle_line2": "2 43359  99.0540  55.8814 0074216  46.0564 314.6705 14.23010265475993"
      },
      "geometry": {
        "type": "Point",
        "coordinates": [
          -131.15231339214276,
          -38.25261173122802
        ]
      }
    },
    {
      "type": "Feature",
      "properties": {
        "norad_id": 45526,
        "name": "FENGYUN 1C DEB",
        "group": "fengyun-1c-debris",
        "lat": -45.96800238419717,
        "lon": -140.65140603986225,
        "alt_km": 777.7496794206008,
        "timestamp": "2025-12-02T08:59:33.004783+00:00",
        "meta_object_name": "FENGYUN 1C DEB",
        "meta_object_id": "1999-025EYR",
        "meta_epoch": "2025-12-01T03:17:49.174944",
        "meta_mean_motion": 14.25781259,
        "meta_eccentricity": 0.00536189,
        "meta_inclination": 98.7652,
        "meta_ra_of_asc_node": 47.2946,
        "meta_arg_of_pericenter": 255.7142,
        "meta_mean_anomaly": 103.8079,
        "meta_ephemeris_type": 0,
        "meta_classification_type": "U",
        "meta_norad_cat_id": 45526,
        "meta_element_set_no": 999,
        "meta_rev_at_epoch": 43211,
        "meta_bstar": 0.0019393759,
        "meta_mean_motion_dot": 4.636e-05,
        "meta_mean_motion_ddot": 0,
        "tle_line1": "1 45526U 99025EYR 25335.13737471  .00004636  00000+0  19394-2 0  9994",
        "tle_line2": "2 45526  98.7652  47.2946 0053618 255.7142 103.8079 14.25781259432115"
      },
      "geometry": {
        "type": "Point",
        "coordinates": [
          -140.65140603986225,
          -45.96800238419717
        ]
      }
    },
    {
      "type": "Feature",
      "properties": {
        "norad_id": 45527,
        "name": "FENGYUN 1C DEB",
        "group": "fengyun-1c-debris",
        "lat": -71.057924092346,
        "lon": 69.68177593192037,
        "alt_km": 784.5588591661326,
        "timestamp": "2025-12-02T08:59:33.004793+00:00",
        "meta_object_name": "FENGYUN 1C DEB",
        "meta_object_id": "1999-025EYS",
        "meta_epoch": "2025-11-30T03:23:05.245152",
        "meta_mean_motion": 14.24357135,
        "meta_eccentricity": 0.00541994,
        "meta_inclination": 98.7401,
        "meta_ra_of_asc_node": 40.8291,
        "meta_arg_of_pericenter": 261.9193,
        "meta_mean_anomaly": 97.5834,
        "meta_ephemeris_type": 0,
        "meta_classification_type": "U",
        "meta_norad_cat_id": 45527,
        "meta_element_set_no": 999,
        "meta_rev_at_epoch": 39400,
        "meta_bstar": 0.001807358,
        "meta_mean_motion_dot": 4.199e-05,
        "meta_mean_motion_ddot": 0,
        "tle_line1": "1 45527U 99025EYS 25334.14103293  .00004199  00000+0  18074-2 0  9992",
        "tle_line2": "2 45527  98.7401  40.8291 0054199 261.9193  97.5834 14.24357135394004"
      },
      "geometry": {
        "type": "Point",
        "coordinates": [
          69.68177593192037,
          -71.057924092346
        ]
      }
    },
    {
      "type": "Feature",
      "properties": {
        "norad_id": 46440,
        "name": "FENGYUN 1C DEB",
        "group": "fengyun-1c-debris",
        "lat": 72.61383624616121,
        "lon": -25.224130419093477,
        "alt_km": 815.7095521353585,
        "timestamp": "2025-12-02T08:59:33.004803+00:00",
        "meta_object_name": "FENGYUN 1C DEB",
        "meta_object_id": "1999-025EYV",
        "meta_epoch": "2025-11-30T21:42:54.078912",
        "meta_mean_motion": 14.20290607,
        "meta_eccentricity": 0.0175806,
        "meta_inclination": 98.5947,
        "meta_ra_of_asc_node": 2.2289,
        "meta_arg_of_pericenter": 169.3708,
        "meta_mean_anomaly": 316.1091,
        "meta_ephemeris_type": 0,
        "meta_classification_type": "U",
        "meta_norad_cat_id": 46440,
        "meta_element_set_no": 999,
        "meta_rev_at_epoch": 62201,
        "meta_bstar": 0.00034066806,
        "meta_mean_motion_dot": 8.08e-06,
        "meta_mean_motion_ddot": 0,
        "tle_line1": "1 46440U 99025EYV 25334.90479258  .00000808  00000+0  34067-3 0  9992",
        "tle_line2": "2 46440  98.5947   2.2289 0175806 169.3708 316.1091 14.20290607622019"
      },
      "geometry": {
        "type": "Point",
        "coordinates": [
          -25.224130419093477,
          72.61383624616121
        ]
      }
    },
    {
      "type": "Feature",
      "properties": {
        "norad_id": 46443,
        "name": "FENGYUN 1C DEB",
        "group": "fengyun-1c-debris",
        "lat": -80.09246053604554,
        "lon": 154.6486717679872,
        "alt_km": 897.9962424552523,
        "timestamp": "2025-12-02T08:59:33.004812+00:00",
        "meta_object_name": "FENGYUN 1C DEB",
        "meta_object_id": "1999-025EYY",
        "meta_epoch": "2025-11-30T03:06:17.115264",
        "meta_mean_motion": 14.10725153,
        "meta_eccentricity": 0.00970161,
        "meta_inclination": 99.2151,
        "meta_ra_of_asc_node": 40.6932,
        "meta_arg_of_pericenter": 31.9391,
        "meta_mean_anomaly": 358.4735,
        "meta_ephemeris_type": 0,
        "meta_classification_type": "U",
        "meta_norad_cat_id": 46443,
        "meta_element_set_no": 999,
        "meta_rev_at_epoch": 59418,
        "meta_bstar": 0.0019203135,
        "meta_mean_motion_dot": 3.542e-05,
        "meta_mean_motion_ddot": 0,
        "tle_line1": "1 46443U 99025EYY 25334.12936476  .00003542  00000+0  19203-2 0  9991",
        "tle_line2": "2 46443  99.2151  40.6932 0097016  31.9391 358.4735 14.10725153594184"
      },
      "geometry": {
        "type": "Point",
        "coordinates": [
          154.6486717679872,
          -80.09246053604554
        ]
      }
    },
    {
      "type": "Feature",
      "properties": {
        "norad_id": 46444,
        "name": "FENGYUN 1C DEB",
        "group": "fengyun-1c-debris",
        "lat": 57.7034711038292,
        "lon": -35.064289871879005,
        "alt_km": 827.665010426892,
        "timestamp": "2025-12-02T08:59:33.004822+00:00",
        "meta_object_name": "FENGYUN 1C DEB",
        "meta_object_id": "1999-025EYZ",
        "meta_epoch": "2025-11-29T06:45:16.022016",
        "meta_mean_motion": 14.27103748,
        "meta_eccentricity": 0.00836434,
        "meta_inclination": 98.5135,
        "meta_ra_of_asc_node": 335.6326,
        "meta_arg_of_pericenter": 190.2717,
        "meta_mean_anomaly": 186.5379,
        "meta_ephemeris_type": 0,
        "meta_classification_type": "U",
        "meta_norad_cat_id": 46444,
        "meta_element_set_no": 999,
        "meta_rev_at_epoch": 62390,
        "meta_bstar": 0.00050592492,
        "meta_mean_motion_dot": 1.237e-05,
        "meta_mean_motion_ddot": 0,
        "tle_line1": "1 46444U 99025EYZ 25333.28143544  .00001237  00000+0  50592-3 0  9990",
        "tle_line2": "2 46444  98.5135 335.6326 0083643 190.2717 186.5379 14.27103748623900"
      },
      "geometry": {
        "type": "Point",
        "coordinates": [
          -35.064289871879005,
          57.7034711038292
        ]
      }
    },
    {
      "type": "Feature",
      "properties": {
        "norad_id": 46449,
        "name": "FENGYUN 1C DEB",
        "group": "fengyun-1c-debris",
        "lat": 25.508166119313554,
        "lon": -164.82927379903083,
        "alt_km": 949.3195729374647,
        "timestamp": "2025-12-02T08:59:33.004833+00:00",
        "meta_object_name": "FENGYUN 1C DEB",
        "meta_object_id": "1999-025EZE",
        "meta_epoch": "2025-11-27T19:57:02.428704",
        "meta_mean_motion": 14.19021773,
        "meta_eccentricity": 0.02029501,
        "meta_inclination": 98.6463,
        "meta_ra_of_asc_node": 6.5721,
        "meta_arg_of_pericenter": 314.0231,
        "meta_mean_anomaly": 44.4375,
        "meta_ephemeris_type": 0,
        "meta_classification_type": "U",
        "meta_norad_cat_id": 46449,
        "meta_element_set_no": 999,
        "meta_rev_at_epoch": 57425,
        "meta_bstar": 0.00050383916,
        "meta_mean_motion_dot": 1.244e-05,
        "meta_mean_motion_ddot": 0,
        "tle_line1": "1 46449U 99025EZE 25331.83127811  .00001244  00000+0  50384-3 0  9990",
        "tle_line2": "2 46449  98.6463   6.5721 0202950 314.0231  44.4375 14.19021773574253"
      },
      "geometry": {
        "type": "Point",
        "coordinates": [
          -164.82927379903083,
          25.508166119313554
        ]
      }
    }
  ]
}